BEIDOU 3 (C01)          
1 36287U 10001A   21191.84290192 -.00000275  00000-0  00000+0 0  9991
2 36287   1.9099  47.2627 0005538  84.3548 241.1975  1.00268657 42085
BEIDOU 5 (C06)          
1 36828U 10036A   21191.30356051 -.00000031  00000-0  00000-0 0  9999
2 36828  54.1811 179.3812 0114623 235.6697  99.5757  1.00253352 40136
BEIDOU 6 (C04)          
1 37210U 10057A   21191.55989712 -.00000104  00000-0  00000-0 0  9992
2 37210   0.8774  50.1456 0004655 122.4951 117.6129  1.00273455 39204
BEIDOU 7 (C07)          
1 37256U 10068A   21191.69433913 -.00000202  00000-0  00000+0 0  9994
2 37256  50.8208 293.7262 0086824 215.7820 144.6064  1.00246219 38722
BEIDOU 8 (C08)          
1 37384U 11013A   21191.44622259 -.00000185  00000-0  00000-0 0  9994
2 37384  59.8076  57.6634 0054000 207.1408 300.3929  1.00300540 37597
BEIDOU 9 (C09)          
1 37763U 11038A   21191.78525500 -.00000024  00000-0  00000+0 0  9991
2 37763  54.4721 181.8225 0083581 227.1321 256.9602  1.00260622 36571
BEIDOU 10 (C10)         
1 37948U 11073A   21191.45226012 -.00000143  00000-0  00000-0 0  9998
2 37948  50.9239 293.3467 0076497 215.0412  37.9843  1.00288216 35328
BEIDOU 11 (C05)         
1 38091U 12008A   21191.89838397  .00000063  00000-0  00000+0 0  9999
2 38091   1.6010  68.5900 0007640 334.7583 267.8725  1.00268592 34400
BEIDOU 12 (C11)         
1 38250U 12018A   21191.10595039 -.00000077  00000-0  00000-0 0  9991
2 38250  56.7551   4.8649 0020211 246.2274 115.3794  1.86234357 62718
BEIDOU 13 (C12)         
1 38251U 12018B   21191.57435678 -.00000076  00000-0  00000+0 0  9993
2 38251  56.6748   4.1950 0011002 247.5816 112.4640  1.86234220 62726
BEIDOU 15 (C14)         
1 38775U 12050B   21191.18876631 -.00000010  00000-0  00000-0 0  9994
2 38775  55.2195 123.2170 0015401 321.0238 337.9044  1.86232340 60088
BEIDOU 16 (C02)         
1 38953U 12059A   21189.96559749 -.00000167  00000-0  00000+0 0  9994
2 38953   2.0207  84.7604 0006088 299.4961 334.5179  1.00271257 31957
BEIDOU 17 (C31)         
1 40549U 15019A   21191.25933253 -.00000176  00000-0  00000-0 0  9999
2 40549  52.4593 316.7256 0039216 187.6174 332.3225  1.00260727 23007
BEIDOU 18 (C57)         
1 40748U 15037A   21191.17247119 -.00000079  00000-0  00000-0 0  9992
2 40748  55.9336   3.2815 0004270  46.1342 314.3148  1.86233471 40540
BEIDOU 19 (C58)         
1 40749U 15037B   21190.97176150 -.00000080  00000-0  00000-0 0  9998
2 40749  55.9399   3.2773 0003199 350.6822  11.2169  1.86232352 40530
BEIDOU 20 (C18)         
1 40938U 15053A   21191.38633950 -.00000116  00000-0  00000-0 0  9998
2 40938  52.0269 279.8022 0048049 192.7911  51.5150  1.00278436 21275
BEIDOU IGSO-6 (C13)     
1 41434U 16021A   21191.92773453 -.00000147  00000-0  00000+0 0  9992
2 41434  57.5871  56.4012 0036799 214.6119  87.8172  1.00268250 19408
BEIDOU-2 G7 (C03)       
1 41586U 16037A   21191.40628334 -.00000347  00000-0  00000-0 0  9990
2 41586   1.7468  67.6596 0008780  19.4780  98.2006  1.00269012 18716
BEIDOU-3 M1 (C19)       
1 43001U 17069A   21191.30563326 -.00000008  00000-0  00000-0 0  9992
2 43001  55.3731 123.1675 0011659 293.7693 239.5218  1.86231826 25026
BEIDOU-3 M2 (C20)       
1 43002U 17069B   21191.39529156 -.00000008  00000-0  00000-0 0  9995
2 43002  55.3726 123.2005 0010198 312.5587 324.2878  1.86231366 25010
BEIDOU-3 M3 (C27)       
1 43107U 18003A   21191.00534734 -.00000081  00000-0  00000-0 0  9997
2 43107  55.3804   4.3587 0005549  57.7968 123.4969  1.86232511 23776
BEIDOU-3 M4 (C28)       
1 43108U 18003B   21190.93843738 -.00000081  00000-0  00000-0 0  9996
2 43108  55.3759   4.3496 0002055 229.6374 311.9706  1.86232492 23776
BEIDOU-3 M5 (C21)       
1 43207U 18018A   21190.04079352 -.00000020  00000-0  00000-0 0  9990
2 43207  55.3317 123.3359 0007826 330.0680  29.8610  1.86231694 23147
BEIDOU-3 M6 (C22)       
1 43208U 18018B   21190.64442908 -.00000015  00000-0  00000-0 0  9992
2 43208  55.3317 123.3212 0009824 304.1078  55.7729  1.86231593 23157
BEIDOU-3 M7 (C29)       
1 43245U 18029A   21191.13883833 -.00000081  00000-0  00000-0 0  9999
2 43245  55.3094   2.1430 0001297  84.7562  96.2470  1.86232760 22318
BEIDOU-3 M8 (C30)       
1 43246U 18029B   21190.53644648 -.00000083  00000-0  10000-3 0  9998
2 43246  55.3074   2.1939 0003844   9.4284 173.8992  1.86233175 22295
BEIDOU IGSO-7 (C16)     
1 43539U 18057A   21191.36781970 -.00000081  00000-0  00000-0 0  9990
2 43539  55.0602 178.7458 0039227 223.9716 131.0713  1.00261820 11072
BEIDOU-3 M9 (C23)       
1 43581U 18062A   21191.14709747  .00000065  00000-0  00000-0 0  9992
2 43581  54.3918 243.8185 0005187 261.9701 180.9099  1.86231896 20058
BEIDOU-3 M10 (C24)      
1 43582U 18062B   21190.88190850  .00000066  00000-0  00000-0 0  9993
2 43582  54.3913 243.8178 0004192 330.8812  25.5569  1.86232325 20043
BEIDOU-3 M11 (C25)      
1 43602U 18067A   21191.59104854  .00000066  00000-0  00000-0 0  9999
2 43602  54.4680 242.3787 0006327 352.5061 161.5672  1.86231678 19557
BEIDOU-3 M12 (C26)      
1 43603U 18067B   21191.14297649  .00000068  00000-0  00000-0 0  9998
2 43603  54.4656 242.3599 0003905 334.7139 149.4059  1.86231625 19566
BEIDOU-3 M13 (C32)      
1 43622U 18072A   21191.86783264 -.00000003  00000-0  00000+0 0  9996
2 43622  55.2976 122.8419 0007935 291.8456 348.3269  1.86231826 19089
BEIDOU-3 M14 (C33)      
1 43623U 18072B   21191.18846567 -.00000010  00000-0  00000-0 0  9997
2 43623  55.2984 122.8554 0006399 312.9076 322.0172  1.86231843 19075
BEIDOU-3 M15 (C34)      
1 43647U 18078A   21190.18147229 -.00000085  00000-0  10000-3 0  9993
2 43647  55.2035   2.3644 0006537   9.1000 205.9087  1.86232758 18569
BEIDOU-3 M16 (C35)      
1 43648U 18078B   21190.80407926 -.00000082  00000-0  00000-0 0  9999
2 43648  55.2016   2.3499 0004521  24.6629 156.2071  1.86232613 18591
BEIDOU-3 G1 (C59)       
1 43683U 18085A   21191.55565953 -.00000269  00000-0  00000+0 0  9990
2 43683   1.0222 224.3605 0002832   7.5285  36.7932  1.00276410  9995
BEIDOU-3 M17 (C36)      
1 43706U 18093A   21191.22490345  .00000066  00000-0  00000-0 0  9996
2 43706  54.4728 243.6765 0011263 266.2539  93.7171  1.86232017 17962
BEIDOU-3 M18 (C37)      
1 43707U 18093B   21191.71341088  .00000064  00000-0  00000+0 0  9997
2 43707  54.4729 243.6502 0009142 287.3558 131.0110  1.86232195 17967
BEIDOU-3 IGSO-1 (C38)   
1 44204U 19023A   21191.55007644 -.00000206  00000-0  00000+0 0  9992
2 44204  56.0521  56.6684 0018668 191.2080 351.9879  1.00288689  8282
BEIDOU-2 G8             
1 44231U 19027A   21191.62284941 -.00000238  00000-0  00000-0 0  9997
2 44231   0.2579 359.9644 0005998 188.0868 109.4760  1.00274211  7999
BEIDOU-3 IGSO-2 (C39)   
1 44337U 19035A   21191.34816347 -.00000078  00000-0  00000-0 0  9995
2 44337  55.0954 174.7884 0020187 194.3870 152.3328  1.00274854  7619
BEIDOU-3 M23 (C45)      
1 44542U 19061A   21189.96741457  .00000067  00000-0  10000-3 0  9997
2 44542  54.6982 243.7944 0008075 317.9080 322.7966  1.86231295 12180
BEIDOU-3 M24 (C46)      
1 44543U 19061B   21191.18051370  .00000066  00000-0  10000-3 0  9992
2 44543  54.6959 243.7227 0005899 299.6561 345.2663  1.86231933 12206
BEIDOU-3 IGSO-3         
1 44709U 19073A   21191.38746907 -.00000171  00000-0  00000-0 0  9992
2 44709  57.8047 299.9219 0020712 200.3998  34.5210  1.00270026  6370
BEIDOU-3 M21            
1 44793U 19078A   21191.27276090 -.00000081  00000-0  10000-3 0  9993
2 44793  55.0543   2.3898 0006484  15.7275 165.3495  1.86232317 11075
BEIDOU-3 M22            
1 44794U 19078B   21191.40680676 -.00000080  00000-0  00000-0 0  9993
2 44794  55.0278   2.3842 0004492  18.8798 163.1019  1.86232851 11072
BEIDOU-3 M19            
1 44864U 19090A   21190.71737272 -.00000014  00000-0  00000-0 0  9990
2 44864  55.2316 123.1093 0017318 270.5268   3.8175  1.86231919 10644
BEIDOU-3 M20            
1 44865U 19090B   21191.12222962 -.00000010  00000-0  00000-0 0  9998
2 44865  55.2346 123.1275 0016209 284.6002 351.0999  1.86231906 10626
BEIDOU-3 G2             
1 45344U 20017A   21191.54379545 -.00000131  00000-0  00000-0 0  9992
2 45344   2.3993 337.4348 0004155 135.7279  91.3441  1.00272103  5192
BEIDOU-3 G3             
1 45807U 20040A   21191.47804449 -.00000343  00000-0  00000-0 0  9995
2 45807   2.2290 298.6293 0004466 348.7947 283.8178  1.00273599  4009
